GLOBALSTAR M063         
1 26081U 00008A   24344.49842409 -.00000005  00000+0  11368-2 0  9998
2 26081  51.9949 251.1434 0004583 319.8064 211.1178 11.86166025135069
GLOBALSTAR M062         
1 26082U 00008B   24344.60554941 -.00000072  00000+0  18875-3 0  9998
2 26082  51.9857 293.2804 0007511  65.4405 105.6434 12.43453122473038
GLOBALSTAR M060         
1 26083U 00008C   24344.46774882  .00000031  00000+0  12107-2 0  9996
2 26083  52.0005 226.8539 0004408  91.0610  80.6939 12.17650487129256
GLOBALSTAR M064         
1 26084U 00008D   24344.33042594 -.00000063  00000+0  28128-3 0  9998
2 26084  52.0053 352.6508 0001634  53.9439 306.1545 11.88526175144527
GLOBALSTAR M069         
1 31573U 07020C   24344.61737282 -.00000050  00000+0  31917-3 0  9990
2 31573  51.9968  42.3735 0000989 126.1823  38.4892 12.53306539810541
GLOBALSTAR M072         
1 31574U 07020D   24344.51122480 -.00000087  00000+0  71774-4 0  9994
2 31574  52.0060 140.4510 0001264  98.9015 303.3527 12.34773404808784
GLOBALSTAR M071         
1 31576U 07020F   24344.55324579 -.00000050  00000+0  31090-3 0  9999
2 31576  52.0086  44.5463 0000515  77.5400  15.5026 12.56567554471787
